[{"OBJECT_NAME":"CHECKMATE 2","OBJECT_ID":"2023-050F","EPOCH":"2026-03-09T19:29:32.529984","MEAN_MOTION":13.85139879,"ECCENTRICITY":0.00065591,"INCLINATION":81.0074,"RA_OF_ASC_NODE":167.0099,"ARG_OF_PERICENTER":215.4307,"MEAN_ANOMALY":144.6414,"EPHEMERIS_TYPE":0,"CLASSIFICATION_TYPE":"U","NORAD_CAT_ID":56167,"ELEMENT_SET_NO":999,"REV_AT_EPOCH":14835,"BSTAR":0.00012325812,"MEAN_MOTION_DOT":1.51e-6,"MEAN_MOTION_DDOT":0},{"OBJECT_NAME":"FENGYUN 1C DEB","OBJECT_ID":"1999-025BDK","EPOCH":"2026-03-09T22:28:29.681760","MEAN_MOTION":14.08951685,"ECCENTRICITY":0.01139831,"INCLINATION":98.6908,"RA_OF_ASC_NODE":56.9058,"ARG_OF_PERICENTER":102.5503,"MEAN_ANOMALY":314.658,"EPHEMERIS_TYPE":0,"CLASSIFICATION_TYPE":"U","NORAD_CAT_ID":31017,"ELEMENT_SET_NO":999,"REV_AT_EPOCH":97524,"BSTAR":0.00030758981,"MEAN_MOTION_DOT":5.24e-6,"MEAN_MOTION_DDOT":0}]
